{"type": "FeatureCollection", "features": [ {"type": "Feature", "properties": {"norad_id": 30467, "name": "FENGYUN 1C DEB", "group": "fengyun-1c-debris", "lat": -74.37149337318034, "lon": 55.58726470099962, "alt_km": 888.8565508020547, "timestamp": "2025-12-21T03:56:51.112732+00:00", "meta": {"OBJECT_NAME": "FENGYUN 1C DEB", "OBJECT_ID": "1999-025AGE", "EPOCH": "2025-12-20T01:27:38.113920", "MEAN_MOTION": 14.17298607, "ECCENTRICITY": 0.00652524, "INCLINATION": 98.6782, "RA_OF_ASC_NODE": 21.4192, "ARG_OF_PERICENTER": 106.7452, "MEAN_ANOMALY": 308.4974, "EPHEMERIS_TYPE": 0, "CLASSIFICATION_TYPE": "U", "NORAD_CAT_ID": 30467, "ELEMENT_SET_NO": 999, "REV_AT_EPOCH": 97281, "BSTAR": 0.00064318465, "MEAN_MOTION_DOT": 1.285e-05, "MEAN_MOTION_DDOT": 0}, "tle": {"line1": "1 30467U 99025AGE 25354.06085780  .00001285  00000+0  64318-3 0  9998", "line2": "2 30467  98.6782  21.4192 0065252 106.7452 308.4974 14.17298607972813"}}, "geometry": {"type": "Point", "coordinates": [55.58726470099962, -74.37149337318034]}}, {"type": "Feature", "properties": {"norad_id": 30468, "name": "FENGYUN 1C DEB", "group": "fengyun-1c-debris", "lat": -22.84403030917323, "lon": 80.53395898661466, "alt_km": 787.7313283903577, "timestamp": "2025-12-21T03:56:51.112741+00:00", "meta": {"OBJECT_NAME": "FENGYUN 1C DEB", "OBJECT_ID": "1999-025AGF", "EPOCH": "2025-12-20T04:31:46.558848", "MEAN_MOTION": 14.20750605, "ECCENTRICITY": 0.0071509, "INCLINATION": 98.9221, "RA_OF_ASC_NODE": 75.7548, "ARG_OF_PERICENTER": 18.3122, "MEAN_ANOMALY": 11.3016, "EPHEMERIS_TYPE": 0, "CLASSIFICATION_TYPE": "U", "NORAD_CAT_ID": 30468, "ELEMENT_SET_NO": 999, "REV_AT_EPOCH": 96916, "BSTAR": 0.0010063056, "MEAN_MOTION_DOT": 2.183e-05, "MEAN_MOTION_DDOT": 0}, "tle": {"line1": "1 30468U 99025AGF 25354.18873332  .00002183  00000+0  10063-2 0  9995", "line2": "2 30468  98.9221  75.7548 0071509  18.3122  11.3016 14.20750605969162"}}, "geometry": {"type": "Point", "coordinates": [80.53395898661466, -22.84403030917323]}}, {"type": "Feature", "properties": {"norad_id": 30469, "name": "FENGYUN 1C DEB", "group": "fengyun-1c-debris", "lat": -47.24268264116574, "lon": -145.5016655547333, "alt_km": 1024.6245756492572, "timestamp": "2025-12-21T03:56:51.112750+00:00", "meta": {"OBJECT_NAME": "FENGYUN 1C DEB", "OBJECT_ID": "1999-025AGG", "EPOCH": "2025-12-20T01:23:55.563072", "MEAN_MOTION": 13.96530202, "ECCENTRICITY": 0.0158592, "INCLINATION": 98.4784, "RA_OF_ASC_NODE": 204.195, "ARG_OF_PERICENTER": 149.1515, "MEAN_ANOMALY": 4.216, "EPHEMERIS_TYPE": 0, "CLASSIFICATION_TYPE": "U", "NORAD_CAT_ID": 30469, "ELEMENT_SET_NO": 999, "REV_AT_EPOCH": 95808, "BSTAR": 0.00076061903, "MEAN_MOTION_DOT": 1.131e-05, "MEAN_MOTION_DDOT": 0}, "tle": {"line1": "1 30469U 99025AGG 25354.05828198  .00001131  00000+0  76062-3 0  9996", "line2": "2 30469  98.4784 204.1950 0158592 149.1515   4.2160 13.96530202958085"}}, "geometry": {"type": "Point", "coordinates": [-145.5016655547333, -47.24268264116574]}}, {"type": "Feature", "properties": {"norad_id": 30471, "name": "FENGYUN 1C DEB", "group": "fengyun-1c-debris", "lat": -23.838210373743056, "lon": -101.16991488176302, "alt_km": 798.0605819103539, "timestamp": "2025-12-21T03:56:51.112759+00:00", "meta": {"OBJECT_NAME": "FENGYUN 1C DEB", "OBJECT_ID": "1999-025AGJ", "EPOCH": "2025-12-20T17:30:48.290112", "MEAN_MOTION": 14.13673149, "ECCENTRICITY": 0.0083225, "INCLINATION": 99.0543, "RA_OF_ASC_NODE": 82.4302, "ARG_OF_PERICENTER": 231.1949, "MEAN_ANOMALY": 281.9267, "EPHEMERIS_TYPE": 0, "CLASSIFICATION_TYPE": "U", "NORAD_CAT_ID": 30471, "ELEMENT_SET_NO": 999, "REV_AT_EPOCH": 96555, "BSTAR": 0.0011402, "MEAN_MOTION_DOT": 2.179e-05, "MEAN_MOTION_DDOT": 0}, "tle": {"line1": "1 30471U 99025AGJ 25354.72972558  .00002179  00000+0  11402-2 0  9992", "line2": "2 30471  99.0543  82.4302 0083225 231.1949 281.9267 14.13673149965559"}}, "geometry": {"type": "Point", "coordinates": [-101.16991488176302, -23.838210373743056]}}, {"type": "Feature", "properties": {"norad_id": 30472, "name": "FENGYUN 1C DEB", "group": "fengyun-1c-debris", "lat": 81.3302465899009, "lon": 9.582152198702122, "alt_km": 683.6711638904217, "timestamp": "2025-12-21T03:56:51.112768+00:00", "meta": {"OBJECT_NAME": "FENGYUN 1C DEB", "OBJECT_ID": "1999-025AGK", "EPOCH": "2025-12-19T05:25:47.155872", "MEAN_MOTION": 14.53905184, "ECCENTRICITY": 0.0037736, "INCLINATION": 98.6522, "RA_OF_ASC_NODE": 94.5483, "ARG_OF_PERICENTER": 59.5385, "MEAN_ANOMALY": 330.7117, "EPHEMERIS_TYPE": 0, "CLASSIFICATION_TYPE": "U", "NORAD_CAT_ID": 30472, "ELEMENT_SET_NO": 999, "REV_AT_EPOCH": 98135, "BSTAR": 0.0015123, "MEAN_MOTION_DOT": 6.377e-05, "MEAN_MOTION_DDOT": 0}, "tle": {"line1": "1 30472U 99025AGK 25353.22624023  .00006377  00000+0  15123-2 0  9996", "line2": "2 30472  98.6522  94.5483 0037736  59.5385 330.7117 14.53905184981352"}}, "geometry": {"type": "Point", "coordinates": [9.582152198702122, 81.3302465899009]}}, {"type": "Feature", "properties": {"norad_id": 30474, "name": "FENGYUN 1C DEB", "group": "fengyun-1c-debris", "lat": -18.515016038237757, "lon": -108.64534461964864, "alt_km": 782.7505384247715, "timestamp": "2025-12-21T03:56:51.112777+00:00", "meta": {"OBJECT_NAME": "FENGYUN 1C DEB", "OBJECT_ID": "1999-025AGM", "EPOCH": "2025-12-20T03:54:59.017248", "MEAN_MOTION": 14.3784684, "ECCENTRICITY": 0.00230003, "INCLINATION": 98.9287, "RA_OF_ASC_NODE": 73.3328, "ARG_OF_PERICENTER": 339.4022, "MEAN_ANOMALY": 79.3803, "EPHEMERIS_TYPE": 0, "CLASSIFICATION_TYPE": "U", "NORAD_CAT_ID": 30474, "ELEMENT_SET_NO": 999, "REV_AT_EPOCH": 97500, "BSTAR": 0.0014238017, "MEAN_MOTION_DOT": 4.261e-05, "MEAN_MOTION_DDOT": 0}, "tle": {"line1": "1 30474U 99025AGM 25354.16318307  .00004261  00000+0  14238-2 0  9993", "line2": "2 30474  98.9287  73.3328 0023000 339.4022  79.3803 14.37846840975003"}}, "geometry": {"type": "Point", "coordinates": [-108.64534461964864, -18.515016038237757]}}, {"type": "Feature", "properties": {"norad_id": 30475, "name": "FENGYUN 1C DEB", "group": "fengyun-1c-debris", "lat": -46.28937269411415, "lon": 45.88144941472402, "alt_km": 825.3552677562566, "timestamp": "2025-12-21T03:56:51.112786+00:00", "meta": {"OBJECT_NAME": "FENGYUN 1C DEB", "OBJECT_ID": "1999-025AGN", "EPOCH": "2025-12-20T16:54:04.893984", "MEAN_MOTION": 14.15702382, "ECCENTRICITY": 0.0042883, "INCLINATION": 98.7873, "RA_OF_ASC_NODE": 36.1162, "ARG_OF_PERICENTER": 267.6581, "MEAN_ANOMALY": 220.6629, "EPHEMERIS_TYPE": 0, "CLASSIFICATION_TYPE": "U", "NORAD_CAT_ID": 30475, "ELEMENT_SET_NO": 999, "REV_AT_EPOCH": 97064, "BSTAR": 0.00059655, "MEAN_MOTION_DOT": 1.136e-05, "MEAN_MOTION_DDOT": 0}, "tle": {"line1": "1 30475U 99025AGN 25354.70422331  .00001136  00000+0  59655-3 0  9998", "line2": "2 30475  98.7873  36.1162 0042883 267.6581 220.6629 14.15702382970648"}}, "geometry": {"type": "Point", "coordinates": [45.88144941472402, -46.28937269411415]}}, {"type": "Feature", "properties": {"norad_id": 30476, "name": "FENGYUN 1C DEB", "group": "fengyun-1c-debris", "lat": -48.401548891542596, "lon": -157.7982556668022, "alt_km": 806.176048334838, "timestamp": "2025-12-21T03:56:51.112796+00:00", "meta": {"OBJECT_NAME": "FENGYUN 1C DEB", "OBJECT_ID": "1999-025AGP", "EPOCH": "2025-12-18T02:31:08.601024", "MEAN_MOTION": 14.20941782, "ECCENTRICITY": 0.00454083, "INCLINATION": 99.1246, "RA_OF_ASC_NODE": 29.4735, "ARG_OF_PERICENTER": 284.0077, "MEAN_ANOMALY": 143.513, "EPHEMERIS_TYPE": 0, "CLASSIFICATION_TYPE": "U", "NORAD_CAT_ID": 30476, "ELEMENT_SET_NO": 999, "REV_AT_EPOCH": 96921, "BSTAR": 0.0011618658, "MEAN_MOTION_DOT": 2.495e-05, "MEAN_MOTION_DDOT": 0}, "tle": {"line1": "1 30476U 99025AGP 25352.10496066  .00002495  00000+0  11619-2 0  9993", "line2": "2 30476  99.1246  29.4735 0045408 284.0077 143.5130 14.20941782969214"}}, "geometry": {"type": "Point", "coordinates": [-157.7982556668022, -48.401548891542596]}}, {"type": "Feature", "properties": {"norad_id": 30477, "name": "FENGYUN 1C DEB", "group": "fengyun-1c-debris", "lat": 8.60940976863898, "lon": -101.13903323306906, "alt_km": 1132.5728859205474, "timestamp": "2025-12-21T03:56:51.112805+00:00", "meta": {"OBJECT_NAME": "FENGYUN 1C DEB", "OBJECT_ID": "1999-025AGQ", "EPOCH": "2025-12-20T12:37:17.536224", "MEAN_MOTION": 13.23849635, "ECCENTRICITY": 0.0434556, "INCLINATION": 99.4251, "RA_OF_ASC_NODE": 76.8407, "ARG_OF_PERICENTER": 258.3377, "MEAN_ANOMALY": 115.9098, "EPHEMERIS_TYPE": 0, "CLASSIFICATION_TYPE": "U", "NORAD_CAT_ID": 30477, "ELEMENT_SET_NO": 999, "REV_AT_EPOCH": 90822, "BSTAR": 0.0025001388, "MEAN_MOTION_DOT": 1.72e-05, "MEAN_MOTION_DDOT": 0}, "tle": {"line1": "1 30477U 99025AGQ 25354.52589741  .00001720  00000+0  25001-2 0  9995", "line2": "2 30477  99.4251  76.8407 0434556 258.3377 115.9098 13.23849635908225"}}, "geometry": {"type": "Point", "coordinates": [-101.13903323306906, 8.60940976863898]}}, {"type": "Feature", "properties": {"norad_id": 30480, "name": "FENGYUN 1C DEB", "group": "fengyun-1c-debris", "lat": -10.668075314076109, "lon": 11.12554485381396, "alt_km": 861.4975236081764, "timestamp": "2025-12-21T03:56:51.112815+00:00", "meta": {"OBJECT_NAME": "FENGYUN 1C DEB", "OBJECT_ID": "1999-025AGS", "EPOCH": "2025-12-20T18:12:47.078208", "MEAN_MOTION": 14.33609271, "ECCENTRICITY": 0.0166672, "INCLINATION": 98.2232, "RA_OF_ASC_NODE": 9.1789, "ARG_OF_PERICENTER": 121.8219, "MEAN_ANOMALY": 296.8642, "EPHEMERIS_TYPE": 0, "CLASSIFICATION_TYPE": "U", "NORAD_CAT_ID": 30480, "ELEMENT_SET_NO": 999, "REV_AT_EPOCH": 98783, "BSTAR": 0.00013482, "MEAN_MOTION_DOT": 3.93e-06, "MEAN_MOTION_DDOT": 0}, "tle": {"line1": "1 30480U 99025AGS 25354.75887822  .00000393  00000+0  13482-3 0  9991", "line2": "2 30480  98.2232   9.1789 0166672 121.8219 296.8642 14.33609271987837"}}, "geometry": {"type": "Point", "coordinates": [11.12554485381396, -10.668075314076109]}}]}